CS1                     
1 49261U 21088B   26068.75173904  .00015722  00000+0  51176-3 0  9998
2 49261  97.3882 132.1684 0014129  78.0335 282.2490 15.31848439245182
STARLINK-32488          
1 62125U 24222M   26068.55036956  .00020377  00000+0  74784-3 0  9990
2 62125  43.0010 137.3160 0002541 283.8149  76.2420 15.27583991 72622
